FLOCK 2P-2              
1 41609U 16040L   17167.59476436  .00002116  00000-0  95124-4 0  9992
2 41609  97.4590 230.2667 0012732  79.1777 281.0891 15.22173655 54538
FLOCK 2P-9              
1 41610U 16040M   17167.60566135  .00001580  00000-0  71779-4 0  9996
2 41610  97.4590 230.2396 0012941  79.0137 281.2554 15.22190332 54416
FLOCK 2P-4              
1 41611U 16040N   17167.43596676  .00003096  00000-0  13774-3 0  9995
2 41611  97.4611 230.2714 0013189  87.7133 272.5613 15.22171955 54556
FLOCK 2P-10             
1 41612U 16040P   17167.61133314  .00002425  00000-0  10855-3 0  9994
2 41612  97.4618 230.5170 0012942  87.3048 272.9670 15.22168661 54580
FLOCK 2P-8              
1 41613U 16040Q   17167.43034892  .00002242  00000-0  10060-3 0  9991
2 41613  97.4612 230.2832 0013023  87.2574 273.0153 15.22177382 54556
FLOCK 2P-12             
1 41614U 16040R   17167.58925972  .00003426  00000-0  15203-3 0  9995
2 41614  97.4623 230.5750 0012723  86.6329 273.6362 15.22187087 54582
FLOCK 2P-7              
1 41615U 16040S   17167.49071877  .00002125  00000-0  95520-4 0  9998
2 41615  97.4610 230.3434 0012947  88.1578 272.1140 15.22165432 54563
FLOCK 2P-5              
1 41616U 16040T   17167.60035316  .00002388  00000-0  10698-3 0  9993
2 41616  97.4624 230.5594 0012767  86.1755 274.0940 15.22165931 54566
FLOCK 2P-1              
1 41617U 16040U   17167.58875193  .00002810  00000-0  12529-3 0  9991
2 41617  97.4625 230.5742 0012599  87.0411 273.2267 15.22173118 54586
FLOCK 2P-3              
1 41618U 16040V   17167.48523788  .00001827  00000-0  82568-4 0  9999
2 41618  97.4627 230.4016 0012609  86.9496 273.3182 15.22176121 54567
BEESAT-4                
1 41619U 16040W   17167.59918224  .00001567  00000-0  74225-4 0  9997
2 41619  97.4625 229.9924 0013765  73.3818 286.8927 15.20741911 42509
3CAT-2                  
1 41732U 16051B   17167.53451595  .00001200  00000-0  51067-4 0  9995
2 41732  97.3770  84.5347 0012305 279.3899 201.5152 15.24876494 46434
FLOCK 2E'-13            
1 41761U 98067KH  17167.57435088  .00008728  00000-0  10904-3 0  9993
2 41761  51.6388  33.7536 0005684 256.9946 103.0413 15.60715375 42810
FLOCK 2E'-14            
1 41762U 98067KJ  17167.62383271  .00008091  00000-0  10088-3 0  9992
2 41762  51.6400  33.3562 0005608 256.2056 103.8314 15.60888290 42828
FLOCK 2E'-16            
1 41763U 98067KK  17167.53145229  .00009289  00000-0  11301-3 0  9991
2 41763  51.6401  33.4851 0004832 267.9918  92.0523 15.61326629 42775
FLOCK 2E'-15            
1 41764U 98067KL  17167.07311256  .00006612  00000-0  84474-4 0  9995
2 41764  51.6398  36.4235 0005224 262.7489  97.2910 15.60605706 42695
FLOCK 2E'-18            
1 41769U 98067KM  17167.63514532  .00007738  00000-0  97611-4 0  9991
2 41769  51.6398  33.4209 0004286 291.8282  68.2255 15.60655526 42784
FLOCK 2E'-17            
1 41776U 98067KN  17167.62754506  .00008272  00000-0  10371-3 0  9996
2 41776  51.6407  33.3874 0004623 291.3998  68.6502 15.60707454 42770
FLOCK 2E'-19            
1 41777U 98067KP  17167.61632365  .00011074  00000-0  12470-3 0  9990
2 41777  51.6386  31.0269 0003646 293.2629  66.7981 15.63115148 42761
FLOCK 2E'-20            
1 41782U 98067KQ  17167.61513228  .00010824  00000-0  12542-3 0  9994
2 41782  51.6398  31.7920 0003557 286.7172  73.3432 15.62400759 42626
CANX-7                  
1 41788U 16059F   17167.58494958  .00007381  00000-0  13908-2 0  9995
2 41788  98.1730 229.3594 0037392 163.9795 196.2635 14.64377979 38501
ALSAT 1N                
1 41789U 16059G   17167.46603658  .00000091  00000-0  26475-4 0  9998
2 41789  98.1666 229.3465 0028889 154.5376 205.7262 14.64049522 38501
RAVAN                   
1 41849U 16067B   17167.22162028  .00000999  00000-0  92203-4 0  9998
2 41849  97.9485 245.2774 0007066 307.5077  52.5501 14.96971506 32369
CELTEE 1                
1 41850U 16067C   17167.19330873 -.00000337  00000-0 -24281-4 0  9990
2 41850  97.9486 245.1599 0007795 308.0045  52.0472 14.96551783 32358
OPTICUBE 04             
1 41851U 16067D   17167.46632308 -.00000268  00000-0 -18247-4 0  9997
2 41851  97.9482 245.4245 0007923 307.5210  52.5291 14.96484064 32392
AEROCUBE 8D             
1 41852U 16067E   17167.51398349  .00000164  00000-0  19928-4 0  9998
2 41852  97.9500 245.3884 0008431 307.5365  52.5089 14.96198095 32399
AEROCUBE 8C             
1 41853U 16067F   17167.45242488 -.00000090  00000-0 -26236-5 0  9995
2 41853  97.9499 245.3122 0008908 308.5463  51.4959 14.96160620 32387
PROMETHEUS 2-1          
1 41854U 16067G   17167.60059830  .00000111  00000-0  15276-4 0  9993
2 41854  97.9497 245.4320 0009333 306.2382  53.7975 14.96108815 32409
PROMETHEUS 2-3          
1 41855U 16067H   17167.60197389  .00000141  00000-0  17938-4 0  9996
2 41855  97.9498 245.4328 0009494 306.3955  53.6390 14.96099966 32400
LEMUR-2-XIAOQING        
1 41871U 16062C   17167.34189910  .00002836  00000-0  13590-3 0  9993
2 41871  51.6343  90.9907 0005013 221.4030 222.7492 15.22226607 30813
LEMUR-2-SOKOLSKY        
1 41872U 16062D   17167.20891981  .00001874  00000-0  94511-4 0  9991
2 41872  51.6248  91.4832 0004707 222.0730 285.6715 15.22272418 30787
LEMUR-2-ANUBHAVTHAKUR   
1 41873U 16062E   17167.20037797 -.00000384  00000-0 -22832-5 0  9994
2 41873  51.6359  92.1882 0007090 230.4508 274.7416 15.21503831 30768
LEMUR-2-WINGO           
1 41874U 16062F   17167.42239968  .00002376  00000-0  11672-3 0  9992
2 41874  51.6464  90.7464 0005501 220.3891 244.5797 15.22067900 30810
STARS-C                 
1 41895U 98067KR  17167.63599502  .00021975  00000-0  25672-3 0  9997
2 41895  51.6390  36.4219 0003298 316.5296  43.5437 15.61523528 27904
TANCREDO-1              
1 41931U 98067KT  17167.52694674  .00042332  00000-0  38739-3 0  9990
2 41931  51.6373  34.1728 0004751 256.4247 103.6220 15.67351398 23497
ITF-2                   
1 41932U 98067KU  17167.63075492  .00011206  00000-0  14645-3 0  9990
2 41932  51.6413  37.9017 0004659 262.5074  97.5389 15.59177240 23454
WASEDA-SAT3             
1 41933U 98067KV  17167.54327706  .00012226  00000-0  15604-3 0  9998
2 41933  51.6396  38.0566 0004530 264.5223  95.5253 15.59706383 23445
AOBA-VELOX 3            
1 41935U 98067KX  17167.62125393  .00012045  00000-0  15516-3 0  9998
2 41935  51.6412  37.8352 0004092 266.0335  94.0191 15.59478566 23556
TUPOD                   
1 41936U 98067KY  17167.62805946  .00083400  00000-0  61781-3 0  9996
2 41936  51.6360  31.8394 0003937 246.0075 114.0512 15.72179332 23010
OSNSAT                  
1 41939U 98067KZ  17166.66314334  .00021878  00000-0  23775-3 0  9990
2 41939  51.6389  40.4188 0005262 259.2594 100.7808 15.63389339 22699
FLOCK 3P-8              
1 41951U 17008D   17167.58037945  .00002700  00000-0  11990-3 0  9991
2 41951  97.4952 228.8909 0008453 182.5823 177.5371 15.22399446 18448
FLOCK 3P-51             
1 41952U 17008E   17167.55515224  .00002620  00000-0  11601-3 0  9990
2 41952  97.4958 228.9339 0007768 201.8212 158.2694 15.22533004 18442
FLOCK 3P-37             
1 41953U 17008F   17167.59786399  .00002543  00000-0  11155-3 0  9996
2 41953  97.4956 229.0246 0007002 205.6072 154.4819 15.22876587 18451
INS-1B                  
1 41954U 17008G   17167.61220098  .00001403  00000-0  65045-4 0  9991
2 41954  97.4936 228.8156 0009554 184.0069 176.1092 15.21708794 18386
FLOCK 3P-19             
1 41955U 17008H   17167.59308314  .00003043  00000-0  13513-3 0  9991
2 41955  97.4948 228.8678 0009344 183.5224 176.5947 15.22292856 18362
FLOCK 3P-24             
1 41956U 17008J   17167.59261416  .00003387  00000-0  14988-3 0  9991
2 41956  97.4948 228.8691 0009349 180.6551 179.4674 15.22324925 18445
FLOCK 3P-18             
1 41957U 17008K   17167.59421109  .00004546  00000-0  20025-3 0  9996
2 41957  97.4948 228.8695 0009395 182.1310 177.9888 15.22301499 18284
FLOCK 3P-22             
1 41958U 17008L   17167.52912057  .00003421  00000-0  15175-3 0  9998
2 41958  97.4950 228.8032 0009207 182.0860 178.0340 15.22243244 18260
FLOCK 3P-21             
1 41959U 17008M   17167.58624466  .00003591  00000-0  15884-3 0  9994
2 41959  97.4954 228.8854 0008939 183.8062 176.3108 15.22301874 18280
FLOCK 3P-28             
1 41960U 17008N   17167.58545003  .00003438  00000-0  15190-3 0  9995
2 41960  97.4952 228.8845 0008788 182.1475 177.9725 15.22372660 18364
FLOCK 3P-26             
1 41961U 17008P   17167.59172218  .00003639  00000-0  16107-3 0  9993
2 41961  97.4952 228.8753 0009046 181.5475 178.5735 15.22268894 18286
FLOCK 3P-17             
1 41962U 17008Q   17167.57726191  .00003733  00000-0  16435-3 0  9996
2 41962  97.4952 228.8949 0008693 184.3680 175.7482 15.22439674 18239
FLOCK 3P-27             
1 41963U 17008R   17167.59567796  .00003447  00000-0  15308-3 0  9993
2 41963  97.4952 228.8720 0009163 182.0944 178.0255 15.22192276 18281
FLOCK 3P-25             
1 41964U 17008S   17167.58836931  .00003483  00000-0  15417-3 0  9994
2 41964  97.4950 228.8780 0008781 182.3229 177.7968 15.22305770 18260
FLOCK 3P-4              
1 41965U 17008T   17167.51802027  .00003609  00000-0  15938-3 0  9995
2 41965  97.4953 228.8226 0008637 183.7159 176.4015 15.22358177 18354
FLOCK 3P-2              
1 41966U 17008U   17167.51788424  .00003597  00000-0  15887-3 0  9999
2 41966  97.4954 228.8251 0008592 181.8056 178.3151 15.22358812 18278
FLOCK 3P-1              
1 41967U 17008V   17167.45537864  .00002449  00000-0  10963-3 0  9998
2 41967  97.4956 228.7564 0008629 183.1848 176.9334 15.22212606 18268
FLOCK 3P-3              
1 41968U 17008W   17167.51974203  .00003378  00000-0  14949-3 0  9998
2 41968  97.4952 228.8199 0008681 182.0506 178.0696 15.22331386 18358
FLOCK 3P-6              
1 41969U 17008X   17167.51683535  .00003370  00000-0  14903-3 0  9996
2 41969  97.4954 228.8269 0008461 181.7246 178.3962 15.22362476 18265
